[{"OBJECT_NAME":"SAUDISAT 5A","OBJECT_ID":"2018-102A","EPOCH":"2026-03-09T23:40:00.596928","MEAN_MOTION":15.26941021,"ECCENTRICITY":0.00113651,"INCLINATION":97.3185,"RA_OF_ASC_NODE":132.4981,"ARG_OF_PERICENTER":121.7113,"MEAN_ANOMALY":238.5235,"EPHEMERIS_TYPE":0,"CLASSIFICATION_TYPE":"U","NORAD_CAT_ID":43831,"ELEMENT_SET_NO":999,"REV_AT_EPOCH":40053,"BSTAR":0.00030305233,"MEAN_MOTION_DOT":7.96e-5,"MEAN_MOTION_DDOT":0},{"OBJECT_NAME":"STARLINK-31950","OBJECT_ID":"2024-098F","EPOCH":"2026-03-08T13:38:36.901824","MEAN_MOTION":15.27770245,"ECCENTRICITY":0.00018404,"INCLINATION":43.0002,"RA_OF_ASC_NODE":284.4192,"ARG_OF_PERICENTER":57.7343,"MEAN_ANOMALY":302.3687,"EPHEMERIS_TYPE":0,"CLASSIFICATION_TYPE":"U","NORAD_CAT_ID":59863,"ELEMENT_SET_NO":999,"REV_AT_EPOCH":10167,"BSTAR":-0.0013814305,"MEAN_MOTION_DOT":-0.00038303,"MEAN_MOTION_DDOT":0}]
